OBJECT_NAME,OBJECT_ID,EPOCH,MEAN_MOTION,ECCENTRICITY,INCLINATION,RA_OF_ASC_NODE,ARG_OF_PERICENTER,MEAN_ANOMALY,EPHEMERIS_TYPE,CLASSIFICATION_TYPE,NORAD_CAT_ID,ELEMENT_SET_NO,REV_AT_EPOCH,BSTAR,MEAN_MOTION_DOT,MEAN_MOTION_DDOT
CUBEBUG-2 (LO-74),2013-066AA,2026-07-01T19:11:19.592448,14.93882399,.00567683,97.8913,131.8405,340.7514,19.1560,0,U,39440,999,67917,.48671059E-3,.5278E-4,0
FUNCUBE-1 (AO-73),2013-066AE,2026-07-01T21:42:35.583264,15.09668727,.00372443,97.8285,154.6596,150.9783,209.3527,0,U,39444,999,68188,.47967094E-3,.7784E-4,0
UWE-3,2013-066AG,2026-07-01T20:28:32.383776,14.97133222,.00471281,97.8710,139.0279,271.0445,88.5377,0,U,39446,999,67977,.29591236E-3,.3431E-4,0
UNISAT-6,2014-033C,2026-07-01T22:11:17.709792,14.88317530,.00452874,97.7895,335.3782,21.6735,338.6385,0,U,40012,999,64835,.29326012E-3,.2707E-4,0
DUCHIFAT-1,2014-033M,2026-07-01T21:49:32.989440,15.67833867,.00000749,98.0444,244.1727,189.5033,170.6224,0,U,40021,999,65805,.13105052E-2,.146119E-2,0
QB50P1,2014-033R,2026-07-01T20:18:28.981728,15.18484138,.00093382,98.0959,195.0218,165.1158,195.0351,0,U,40025,999,65525,.51613824E-3,.10583E-3,0
LILACSAT-2,2015-049K,2026-07-01T21:52:09.160032,15.51937096,.00070991,97.4622,220.3156,183.4591,176.6613,0,U,40908,999,59803,.35781581E-3,.21426E-3,0
FOX-1A (AO-85),2015-058D,2026-07-01T13:43:50.695392,14.91028580,.01313639,64.7738,234.2784,51.0040,310.2684,0,U,40967,999,11571,.20846425E-3,.2259E-4,0
CAS-2T & KS-1Q,2016-066G,2026-07-01T22:09:50.211648,14.44742130,.03428106,98.3818,258.4912,84.9210,279.1009,0,U,41847,999,50692,.2387131E-3,.1658E-4,0
RADFXSAT (FOX-1B),2017-073E,2026-07-01T21:24:12.581856,15.12913182,.01482109,97.4682,49.8065,277.9393,80.5040,0,U,43017,999,46761,.33643385E-3,.7692E-4,0
DIWATA-2B,2018-084H,2026-07-01T23:22:56.065728,15.00516224,.00131047,98.1198,19.8281,124.3132,235.9333,0,U,43678,999,41843,.18788883E-3,.2306E-4,0
ES'HAIL 2,2018-090A,2026-07-01T20:59:43.196928,1.00272828,.0002241,0.0194,26.3749,108.6872,125.5756,0,U,43700,999,2782,0,.155E-5,0
FOX-1CLIFF (AO-95),2018-099N,2026-07-01T15:02:30.261696,15.27015728,.00069323,97.4377,242.8216,298.6227,61.4315,0,U,43770,999,41542,.51478319E-3,.13594E-3,0
ITASAT,2018-099AE,2026-07-01T09:08:44.956896,15.19232257,.0010915,97.4018,233.6103,306.5380,53.4849,0,U,43786,999,41506,.38949762E-3,.8152E-4,0
JY1SAT (JO-97),2018-099AX,2026-07-01T21:42:27.587808,15.34128089,.00055967,97.4121,245.7937,201.0553,159.0460,0,U,43803,999,41588,.6482937E-3,.21377E-3,0
UWE-4,2018-111E,2026-07-01T01:28:37.633152,15.46980202,.00043375,97.5854,111.0998,264.5521,95.5233,0,U,43880,999,41292,.77186828E-3,.38998E-3,0
TIANYAN 01,2019-093C,2026-07-01T22:05:50.482752,14.86541075,.00146573,97.7534,254.7935,43.1242,317.1119,0,U,44881,999,35360,.33732624E-4,.246E-5,0
RS-44 & BREEZE-KM R/B,2019-096E,2026-07-01T18:45:13.787712,12.79748929,.02185541,82.5232,330.0063,110.1949,252.2802,0,U,44909,999,30421,-.2873383E-4,.6E-7,0
SALSAT,2020-068K,2026-07-01T22:15:07.293600,15.30008157,.00080276,97.8846,186.8910,245.2054,114.8351,0,U,46495,999,31761,.30790672E-3,.8869E-4,0
XW-3 (CAS-9),2021-131B,2026-07-01T23:30:43.581312,14.41370784,.00052506,98.4992,275.2894,62.7619,297.4105,0,U,50466,999,23724,.17882526E-3,.535E-5,0
GREENCUBE (IO-117),2022-080E,2026-06-30T17:23:31.202880,6.42583253,.00089588,70.1437,293.5372,286.6703,73.2973,0,U,53109,999,9293,0,-.3E-7,0
UMKA 1 (RS40S),2023-091G,2026-07-01T21:32:03.890400,15.20989631,.00140997,97.5041,241.5386,72.2201,288.0572,0,U,57172,999,16624,.35675675E-3,.7861E-4,0
CUBESX-HSE 3 (RS42S),2023-091N,2026-07-01T22:35:18.367584,15.31589089,.00110706,97.5085,248.7177,47.9603,312.2578,0,U,57178,999,16668,.54647831E-3,.16639E-3,0
MONITOR-3 (RS58S),2023-091Q,2026-07-01T22:23:36.959424,15.28140137,.00123194,97.5076,246.4892,54.4256,305.8130,0,U,57180,999,16654,.4858935E-3,.13292E-3,0
MONITOR-4 (RS57S),2023-091S,2026-07-01T21:52:16.851360,15.28225603,.00123494,97.5071,246.4393,54.8735,305.3660,0,U,57182,999,16654,.48015918E-3,.13169E-3,0
MONITOR-2 (RS39S),2023-091U,2026-07-01T22:29:27.475584,15.19048190,.00124862,97.5062,241.1252,66.3196,293.9347,0,U,57184,999,16619,.2759184E-3,.5724E-4,0
SVYATOBOR 1 (RS60S),2023-091X,2026-07-01T22:29:38.232384,15.26865691,.00100628,97.5081,246.8374,49.2192,310.9918,0,U,57187,999,16656,.42468573E-3,.11155E-3,0
VIZARD-METEO (RS38S),2023-091Z,2026-07-01T22:24:10.165536,15.36497609,.0006993,97.5087,252.7179,30.2991,329.8656,0,U,57189,999,16695,.57877976E-3,.20576E-3,0
POLYTECH-UNIVERSE 3 (RS46S),2023-091AB,2026-07-01T21:30:55.949760,15.19256544,.00169552,97.5039,240.5890,80.4293,279.8856,0,U,57191,999,16618,.31349352E-3,.6565E-4,0
UTMN 2 (RS27S),2023-091AP,2026-07-01T21:15:04.609728,15.32412571,.00081688,97.5081,250.3127,37.9352,322.2464,0,U,57203,999,16679,.5154783E-3,.16084E-3,0
