CUBEBUG-2 (LO-74)
1 39440U 13066AA  26182.79953232  .00005278  00000-0  48671-3 0  9996
2 39440  97.8913 131.8405 0056768 340.7514  19.1560 14.93882399679175
FUNCUBE-1 (AO-73)
1 39444U 13066AE  26182.90457851  .00007784  00000-0  47967-3 0  9990
2 39444  97.8285 154.6596 0037244 150.9783 209.3527 15.09668727681884
UWE-3
1 39446U 13066AG  26182.85315259  .00003431  00000-0  29591-3 0  9999
2 39446  97.8710 139.0279 0047128 271.0445  88.5377 14.97133222679774
UNISAT-6
1 40012U 14033C   26182.92451053  .00002707  00000-0  29326-3 0  9997
2 40012  97.7895 335.3782 0045287  21.6735 338.6385 14.88317530648357
DUCHIFAT-1
1 40021U 14033M   26182.90940960  .00146119  00000-0  13105-2 0  9998
2 40021  98.0444 244.1727 0000075 189.5033 170.6224 15.67833867658056
LILACSAT-2
1 40908U 15049K   26182.91121713  .00021426  00000-0  35782-3 0  9997
2 40908  97.4622 220.3156 0007099 183.4591 176.6613 15.51937096598039
CAS-2T & KS-1Q
1 41847U 16066G   26182.92349782  .00001658  00000-0  23871-3 0  9990
2 41847  98.3818 258.4912 0342811  84.9210 279.1009 14.44742130506927
FOX-1B (AO-91)
1 43017U 17073E   26182.89181229  .00007692  00000-0  33643-3 0  9998
2 43017  97.4682  49.8065 0148211 277.9393  80.5040 15.12913182467616
FUNCUBE-3 (EO-79)/QB50P1
1 40025U 14033R   26182.84616877  .00010583  00000-0  51614-3 0  9995
2 40025  98.0959 195.0218 0009338 165.1158 195.0351 15.18484138655259
FOX-1A (AO-85)
1 40967U 15058D   26182.57211453  .00002259  00000-0  20846-3 0  9993
2 40967  64.7738 234.2784 0131364  51.0040 310.2684 14.91028580115718
DIWATA-2B (PO-101)
1 43678U 18084H   26182.97426002  .00002306  00000-0  18789-3 0  9995
2 43678  98.1198  19.8281 0013105 124.3132 235.9333 15.00516224418435
ESHAIL-2
1 43700U 18090A   26182.87480552  .00000155  00000-0  00000-0 0  9991
2 43700   0.0194  26.3749 0002241 108.6872 125.5756  1.00272828 27822
ITASAT-1
1 43786U 18099AE  26182.38107589  .00008152  00000-0  38950-3 0  9999
2 43786  97.4018 233.6103 0010915 306.5380  53.4849 15.19232257415064
FOX-1CLIFF (AO-95)
1 43770U 18099N   26182.62673914  .00013594  00000-0  51478-3 0  9995
2 43770  97.4377 242.8216 0006932 298.6227  61.4315 15.27015728415425
JY1SAT (JO-97)
1 43803U 18099AX  26182.90448597  .00021377  00000-0  64829-3 0  9992
2 43803  97.4121 245.7937 0005597 201.0553 159.0460 15.34128089415885
UWE-4
1 43880U 18111E   26182.06154668  .00038998  00000-0  77187-3 0  9990
2 43880  97.5854 111.0998 0004337 264.5521  95.5233 15.46980202412926
CAS-6 (TO-108)
1 44881U 19093C   26182.92072318  .00000246  00000-0  33733-4 0  9993
2 44881  97.7534 254.7935 0014657  43.1242 317.1119 14.86541075353607
DOSAAF-85 (RS-44)
1 44909U 19096E   26182.78140958  .00000006  00000-0 -28734-4 0  9997
2 44909  82.5232 330.0063 0218554 110.1949 252.2802 12.79748929304214
SALSAT (TUBSAT 22)
1 46495U 20068K   26182.92716775  .00008869  00000-0  30791-3 0  9991
2 46495  97.8846 186.8910 0008028 245.2054 114.8351 15.30008157317616
CAMSAT XW-3 (CAS-9)
1 50466U 21131B   26182.97967108  .00000535  00000-0  17883-3 0  9998
2 50466  98.4992 275.2894 0005251  62.7619 297.4105 14.41370784237240
ROBUSTA 1F (MTCUBE-2)
1 53109U 22080E   26181.72466670 -.00000003  00000-0  00000-0 0  9990
2 53109  70.1437 293.5372 0008959 286.6703  73.2973  6.42583253 92938
UMKA-1 (RS40S)
1 57172U 23091G   26182.89726725  .00007861  00000-0  35676-3 0  9994
2 57172  97.5041 241.5386 0014100  72.2201 288.0572 15.20989631166244
CUBESX-HSE-3 (RS42S)
1 57178U 23091N   26182.94118481  .00016639  00000-0  54648-3 0  9993
2 57178  97.5085 248.7177 0011071  47.9603 312.2578 15.31589089166683
MONITOR-3 (RS58S)
1 57180U 23091Q   26182.93306666  .00013292  00000-0  48589-3 0  9998
2 57180  97.5076 246.4892 0012319  54.4256 305.8130 15.28140137166548
MONITOR-4 (RS57S)
1 57182U 23091S   26182.91130615  .00013169  00000-0  48016-3 0  9995
2 57182  97.5071 246.4393 0012349  54.8735 305.3660 15.28225603166545
MONITOR-2 (RS39S)
1 57184U 23091U   26182.93712356  .00005724  00000-0  27592-3 0  9991
2 57184  97.5062 241.1252 0012486  66.3196 293.9347 15.19048190166193
SVYATOBOR-1 (RS60S)
1 57187U 23091X   26182.93724806  .00011155  00000-0  42469-3 0  9992
2 57187  97.5081 246.8374 0010063  49.2192 310.9918 15.26865691166565
VIZARD-METEO (RS38S)
1 57189U 23091Z   26182.93345099  .00020576  00000-0  57878-3 0  9994
2 57189  97.5087 252.7179 0006993  30.2991 329.8656 15.36497609166958
UTMN-2 (RS27S)
1 57203U 23091AP  26182.88547002  .00016084  00000-0  51548-3 0  9990
2 57203  97.5081 250.3127 0008169  37.9352 322.2464 15.32412571166795
POLYTECH UNIVERSE-3 (RS46S)
1 57191U 23091AB  26182.89648090  .00006565  00000-0  31349-3 0  9996
2 57191  97.5039 240.5890 0016955  80.4293 279.8856 15.19256544166187
